LYNK TOWER 6            
1 59123U 24043AB  26068.89488777  .00011440  00000+0  40142-3 0  9996
2 59123  97.5426 204.1954 0009749 232.0253 128.0107 15.29548678111845
STARLINK-35435          
1 66464U 25262J   26068.96749129  .00029902  00000+0  10916-2 0  9992
2 66464  42.9988 294.1890 0001314 289.2331  70.8379 15.27584024 18953
