[{"OBJECT_NAME":"LYNK TOWER 6","OBJECT_ID":"2024-043AB","EPOCH":"2026-03-09T21:28:38.303328","MEAN_MOTION":15.29548678,"ECCENTRICITY":0.00097492,"INCLINATION":97.5426,"RA_OF_ASC_NODE":204.1954,"ARG_OF_PERICENTER":232.0253,"MEAN_ANOMALY":128.0107,"EPHEMERIS_TYPE":0,"CLASSIFICATION_TYPE":"U","NORAD_CAT_ID":59123,"ELEMENT_SET_NO":999,"REV_AT_EPOCH":11184,"BSTAR":0.00040142146,"MEAN_MOTION_DOT":0.0001144,"MEAN_MOTION_DDOT":0},{"OBJECT_NAME":"STARLINK-35435","OBJECT_ID":"2025-262J","EPOCH":"2026-03-09T23:13:11.247456","MEAN_MOTION":15.27584024,"ECCENTRICITY":0.00013138,"INCLINATION":42.9988,"RA_OF_ASC_NODE":294.189,"ARG_OF_PERICENTER":289.2331,"MEAN_ANOMALY":70.8379,"EPHEMERIS_TYPE":0,"CLASSIFICATION_TYPE":"U","NORAD_CAT_ID":66464,"ELEMENT_SET_NO":999,"REV_AT_EPOCH":1895,"BSTAR":0.0010915959,"MEAN_MOTION_DOT":0.00029902,"MEAN_MOTION_DDOT":0}]
